NORAD_CAT_ID,OBJECT_NAME,OBJECT_TYPE,EPOCH,MEAN_MOTION,ECCENTRICITY,INCLINATION,RA_OF_ASC_NODE,ARG_OF_PERICENTER,MEAN_ANOMALY,BSTAR,MEAN_MOTION_DOT,MEAN_MOTION_DDOT,TLE_LINE0,TLE_LINE1,TLE_LINE2,SEMIMAJOR_AXIS,PERIOD,APOGEE,PERIGEE,DECAYED
51973.0,STARLINK-3679,PAYLOAD,2022-05-18 06:00:00,15.42151329,0.0001867,53.2175,157.9557,31.9949,56.2055,-0.017899,-0.00720032,0.0,0 STARLINK-3679,1 51973U 22025T   22138.25001157 -.00720032  00000-0 -17899-1 0  9994,2 51973  53.2175 157.9557 0001867  31.9949  56.2055 15.42151329 12195,6817.898,93.376,441.036,438.49,0.0
51973.0,STARLINK-3679,PAYLOAD,2022-05-18 14:00:01,15.41641084,0.0001623,53.2171,156.3838,42.8756,96.6331,-0.018177,-0.00718836,0.0,0 STARLINK-3679,1 51973U 22025T   22138.58334491 -.00718836  00000-0 -18177-1 0  9999,2 51973  53.2171 156.3838 0001623  42.8756  96.6331 15.41641084  1300,6819.401999999999,93.407,442.374,440.161,0.0
51973.0,STARLINK-3679,PAYLOAD,2022-05-18 22:00:00,15.41130984,0.0001715,53.2172,154.811,41.6209,148.5848,-0.018493,-0.00718949,0.0,0 STARLINK-3679,1 51973U 22025T   22138.91667824 -.00718949  00000-0 -18493-1 0  9991,2 51973  53.2172 154.8110 0001715  41.6209 148.5848 15.41130984  1301,6820.906999999997,93.438,443.942,441.602,0.0
51973.0,STARLINK-3679,PAYLOAD,2022-05-19 14:00:01,15.40113015,0.0001543,53.2171,151.6743,46.346,243.4753,-0.019217,-0.0072191,0.0,0 STARLINK-3679,1 51973U 22025T   22139.58335648 -.00721910  00000-0 -19217-1 0  9998,2 51973  53.2171 151.6743 0001543  46.3460 243.4753 15.40113015  1302,6823.9119999999975,93.5,446.83,444.725,0.0
51973.0,STARLINK-3679,PAYLOAD,2022-05-19 22:00:00,15.39599071,0.0001563,53.2173,150.1054,39.4461,299.1711,-0.019367,-0.0071575,0.0,0 STARLINK-3679,1 51973U 22025T   22139.91667824 -.00715750  00000-0 -19367-1 0  9990,2 51973  53.2173 150.1054 0001563  39.4461 299.1711 15.39599071 12457,6825.431,93.531,448.36300000000006,446.229,0.0
51973.0,STARLINK-3679,PAYLOAD,2022-05-20 14:00:01,15.38581199,0.0001479,53.2171,146.9761,44.4305,30.0612,-0.020102,-0.00718179,0.0,0 STARLINK-3679,1 51973U 22025T   22140.58334491 -.00718179  00000-0 -20102-1 0  9993,2 51973  53.2171 146.9761 0001479  44.4305  30.0612 15.38581199  1307,6828.441,93.593,451.316,449.296,0.0
51973.0,STARLINK-3679,PAYLOAD,2022-05-20 22:00:00,15.38071602,0.0001686999999999,53.2172,145.4107,39.2766,82.2355,-0.020497,-0.0072003,0.0,0 STARLINK-3679,1 51973U 22025T   22140.91667824 -.00720030  00000-0 -20497-1 0  9995,2 51973  53.2172 145.4107 0001687  39.2766  82.2355 15.38071602 12601,6829.949000000001,93.624,452.966,450.662,0.0
51973.0,STARLINK-3679,PAYLOAD,2022-05-21 06:00:00,15.37559952,0.0002066,53.2172,143.8498,33.4771,134.4408,-0.020744,-0.00716926,0.0,0 STARLINK-3679,1 51973U 22025T   22141.25001157 -.00716926  00000-0 -20744-1 0  9998,2 51973  53.2172 143.8498 0002066  33.4771 134.4408 15.37559952  1302,6831.464,93.655,454.741,451.918,0.0
51973.0,STARLINK-3679,PAYLOAD,2022-05-21 14:00:01,15.37052227,0.0001644,53.2172,142.2885,47.4193,166.3554,-0.021202,-0.0072038,0.0,0 STARLINK-3679,1 51973U 22025T   22141.58335648 -.00720380  00000-0 -21202-1 0  9998,2 51973  53.2172 142.2885 0001644  47.4193 166.3554 15.37052227  1308,6832.969,93.686,455.957,453.71,0.0
51973.0,STARLINK-3679,PAYLOAD,2022-05-21 22:00:00,15.36540686,0.0001617,53.2172,140.7266,47.4923,211.4006,-0.021478,-0.00717925,0.0,0 STARLINK-3679,1 51973U 22025T   22141.91667824 -.00717925  00000-0 -21478-1 0  9995,2 51973  53.2172 140.7266 0001617  47.4923 211.4006 15.36540686  1309,6834.485,93.717,457.455,455.245,0.0
51973.0,STARLINK-3679,PAYLOAD,2022-05-22 06:00:00,15.36030754,0.0001783,53.2173,139.1697,38.6461,264.8136,-0.021831,-0.00717811,0.0,0 STARLINK-3679,1 51973U 22025T   22142.25001157 -.00717811  00000-0 -21831-1 0  9991,2 51973  53.2173 139.1697 0001783  38.6461 264.8136 15.36030754 12817,6835.998000000001,93.748,459.081,456.644,0.0
51973.0,STARLINK-3679,PAYLOAD,2022-05-22 14:00:01,15.3552283,0.0001499,53.2174,137.6118,44.0115,303.4027,-0.022299,-0.00720978,0.0,0 STARLINK-3679,1 51973U 22025T   22142.58334491 -.00720978  00000-0 -22299-1 0  9994,2 51973  53.2174 137.6118 0001499  44.0115 303.4027 15.35522830  1301,6837.505,93.779,460.395,458.345,0.0
51973.0,STARLINK-3679,PAYLOAD,2022-05-22 22:00:01,15.350096100000002,0.0001520999999999,53.2173,136.0538,41.8752,348.9474,-0.022495,-0.00715829,0.0,0 STARLINK-3679,1 51973U 22025T   22142.91668981 -.00715829  00000-0 -22495-1 0  9992,2 51973  53.2173 136.0538 0001521  41.8752 348.9474 15.35009610  1303,6839.029,93.81,461.934,459.854,0.0
51973.0,STARLINK-3679,PAYLOAD,2022-05-23 06:00:00,15.34502483,0.0001988,53.2174,134.5006,30.1709,43.3151,-0.023017,-0.00720334,0.0,0 STARLINK-3679,1 51973U 22025T   22143.25001157 -.00720334  00000-0 -23017-1 0  9994,2 51973  53.2174 134.5006 0001988  30.1709  43.3151 15.34502483 12964,6840.536,93.841,463.761,461.041,0.0
51973.0,STARLINK-3679,PAYLOAD,2022-05-23 14:00:01,15.33991013,0.0001601,53.2173,132.946,42.6408,72.9628,-0.023294,-0.00717367,0.0,0 STARLINK-3679,1 51973U 22025T   22143.58334491 -.00717367  00000-0 -23294-1 0  9999,2 51973  53.2173 132.9460 0001601  42.6408  72.9628 15.33991013  1308,6842.056,93.873,465.017,462.826,0.0
51973.0,STARLINK-3679,PAYLOAD,2022-05-23 22:00:01,15.33481778,0.0001822,53.2174,131.3918,39.1651,118.0068,-0.023725,-0.00718803,0.0,0 STARLINK-3679,1 51973U 22025T   22143.91668981 -.00718803  00000-0 -23725-1 0  9995,2 51973  53.2174 131.3918 0001822  39.1651 118.0068 15.33481778  1308,6843.571,93.904,466.6830000000001,464.189,0.0
51973.0,STARLINK-3679,PAYLOAD,2022-05-24 06:00:02,15.32970352,0.0002182,53.2174,129.842,31.9927,166.07,-0.02403,-0.00716559,0.0,0 STARLINK-3679,1 51973U 22025T   22144.25002315 -.00716559  00000-0 -24030-1 0  9992,2 51973  53.2174 129.8420 0002182  31.9927 166.0700 15.32970352 13123,6845.093000000003,93.935,468.451,465.464,0.0
51973.0,STARLINK-3679,PAYLOAD,2022-05-24 12:58:33,15.33826749,0.0001148,53.217,128.4739,60.1007,300.011,-0.0065891,-0.00212907,0.0,0 STARLINK-3679,1 51973U 22025T   22144.54067070 -.00212907  00000-0 -65891-2 0  9992,2 51973  53.2170 128.4739 0001148  60.1007 300.0110 15.33826749 13161,6842.545,93.883,465.195,463.624,0.0
51973.0,STARLINK-3679,PAYLOAD,2022-05-24 22:00:00,15.31950411,0.0001671,53.2176,126.7405,44.6611,233.2826,-0.024794,-0.00715876,0.0,0 STARLINK-3679,1 51973U 22025T   22144.91667824 -.00715876  00000-0 -24794-1 0  9995,2 51973  53.2176 126.7405 0001671  44.6611 233.2826 15.31950411 13227,6848.130999999999,93.998,471.14,468.851,0.0
51973.0,STARLINK-3679,PAYLOAD,2022-05-25 14:00:01,15.30932272,0.0001585,53.2175,123.6469,40.2964,315.1392,-0.025739,-0.00719479,0.0,0 STARLINK-3679,1 51973U 22025T   22145.58334491 -.00719479  00000-0 -25739-1 0  9993,2 51973  53.2175 123.6469 0001585  40.2964 315.1392 15.30932272  1307,6851.167,94.06,474.117,471.946,0.0
51973.0,STARLINK-3679,PAYLOAD,2022-05-25 22:00:00,15.30419686,0.0001696,53.2176,122.1003,36.9711,356.2929,-0.025955,-0.00714422,0.0,0 STARLINK-3679,1 51973U 22025T   22145.91667824 -.00714422  00000-0 -25955-1 0  9992,2 51973  53.2176 122.1003 0001696  36.9711 356.2929 15.30419686 13372,6852.696,94.092,475.723,473.399,0.0
51973.0,STARLINK-3679,PAYLOAD,2022-05-26 14:00:01,15.29401162,0.0001644,53.2174,119.0137,42.2694,64.8099,-0.026894,-0.00716978,0.0,0 STARLINK-3679,1 51973U 22025T   22146.58334491 -.00716978  00000-0 -26894-1 0  9998,2 51973  53.2174 119.0137 0001644  42.2694  64.8099 15.29401162  1304,6855.738,94.154,478.73,476.476,0.0
51973.0,STARLINK-3679,PAYLOAD,2022-05-26 22:00:00,15.28891212,0.0001838,53.2177,117.4708,38.9784,104.09,-0.027291,-0.00716259,0.0,0 STARLINK-3679,1 51973U 22025T   22146.91667824 -.00716259  00000-0 -27291-1 0  9998,2 51973  53.2177 117.4708 0001838  38.9784 104.0900 15.28891212 13534,6857.263000000001,94.186,480.388,477.867,0.0
51973.0,STARLINK-3679,PAYLOAD,2022-05-27 02:05:46,15.29820178,0.0003281,53.2145,116.6705,9.5632,350.5431,-0.0065084,-0.00186227,0.0,0 STARLINK-3679,1 51973U 22025T   22147.08734169 -.00186227  00000-0 -65084-2 0  9993,2 51973  53.2145 116.6705 0003281   9.5632 350.5431 15.29820178 13550,6854.486,94.129,478.6,474.102,0.0
51973.0,STARLINK-3679,PAYLOAD,2022-05-27 14:00:01,15.2787228,0.0001710999999999,53.2174,114.3911,47.239,165.9683,-0.028261,-0.0072694999999999,0.0,0 STARLINK-3679,1 51973U 22025T   22147.58334491 -.00726950  00000-0 -28261-1 0  9990,2 51973  53.2174 114.3911 0001711  47.2390 165.9683 15.27872280  1308,6860.311,94.249,483.35,481.002,0.0
51973.0,STARLINK-3679,PAYLOAD,2022-05-27 14:39:07,15.29194592,0.000151,53.2155,114.2574,5.5876,354.5141,-0.0080427,-0.00224456,0.0,0 STARLINK-3679,1 51973U 22025T   22147.61050768 -.00224456  00000-0 -80427-2 0  9993,2 51973  53.2155 114.2574 0001510   5.5876 354.5141 15.29194592 13633,6856.356,94.167,479.256,477.185,0.0
51973.0,STARLINK-3679,PAYLOAD,2022-05-27 22:00:01,15.27361322,0.0001819,53.2175,112.852,41.7398,205.682,-0.028586,-0.00724108,0.0,0 STARLINK-3679,1 51973U 22025T   22147.91668981 -.00724108  00000-0 -28586-1 0  9994,2 51973  53.2175 112.8520 0001819  41.7398 205.6820 15.27361322 13683,6861.840999999999,94.28,484.954,482.458,0.0
51973.0,STARLINK-3679,PAYLOAD,2022-05-28 14:00:01,15.26342834,0.0001496999999999,53.2174,109.7794,49.2875,264.533,-0.029662,-0.0072807,0.0,0 STARLINK-3679,1 51973U 22025T   22148.58334491 -.00728070  00000-0 -29662-1 0  9992,2 51973  53.2174 109.7794 0001497  49.2875 264.5330 15.26342834  1307,6864.893,94.343,487.786,485.73,0.0
51973.0,STARLINK-3679,PAYLOAD,2022-05-28 20:29:58,15.27313549,8.240000000000001e-05,53.2158,108.5181,16.2974,343.8052,-0.0078762,-0.0020796,0.0,0 STARLINK-3679,1 51973U 22025T   22148.85415055 -.00207960  00000-0 -78762-2 0  9994,2 51973  53.2158 108.5181 0000824  16.2974 343.8052 15.27313549 13827,6861.984,94.283,484.414,483.284,0.0
